LIZZIESAT-2 (LS-2)      
1 62383U 24247G   26068.49140277  .00009388  00000+0  34517-3 0  9997
2 62383  44.9909 117.0823 0004092 327.5136  32.5495 15.28222796 67716
STARLINK-36522          
1 67461U 26008S   26068.43783774  .00035412  00000+0  12884-2 0  9994
2 67461  43.0018 206.6580 0002991 301.8818  58.1742 15.27623629  9536
